{"type": "FeatureCollection", "features": [ {"type": "Feature", "properties": {"norad_id": 66651, "name": "2025-274B", "group": "last-30-days", "lat": -15.211021626271089, "lon": -93.22845734042853, "alt_km": 593.4035276058676, "timestamp": "2025-12-03T06:58:42.033861+00:00", "meta": {"OBJECT_NAME": "2025-274B", "OBJECT_ID": "2025-274B", "EPOCH": "2025-12-02T18:10:03.249120", "MEAN_MOTION": 14.91673214, "ECCENTRICITY": 0.0010747, "INCLINATION": 97.7375, "RA_OF_ASC_NODE": 264.1291, "ARG_OF_PERICENTER": 289.5159, "MEAN_ANOMALY": 70.4898, "EPHEMERIS_TYPE": 0, "CLASSIFICATION_TYPE": "U", "NORAD_CAT_ID": 66651, "ELEMENT_SET_NO": 999, "REV_AT_EPOCH": 91, "BSTAR": 0.0005491, "MEAN_MOTION_DOT": 5.472e-05, "MEAN_MOTION_DDOT": 0}, "tle": {"line1": "1 66651U 25274B   25336.75698205  .00005472  00000+0  54910-3 0  9994", "line2": "2 66651  97.7375 264.1291 0010747 289.5159  70.4898 14.91673214   911"}}, "geometry": {"type": "Point", "coordinates": [-93.22845734042853, -15.211021626271089]}}, {"type": "Feature", "properties": {"norad_id": 66652, "name": "2025-274C", "group": "last-30-days", "lat": -11.68170577333096, "lon": -93.73414866811727, "alt_km": 592.3574486573507, "timestamp": "2025-12-03T06:58:42.033871+00:00", "meta": {"OBJECT_NAME": "2025-274C", "OBJECT_ID": "2025-274C", "EPOCH": "2025-12-02T18:09:10.375776", "MEAN_MOTION": 14.91818929, "ECCENTRICITY": 0.0010526, "INCLINATION": 97.738, "RA_OF_ASC_NODE": 264.1303, "ARG_OF_PERICENTER": 296.1312, "MEAN_ANOMALY": 63.8824, "EPHEMERIS_TYPE": 0, "CLASSIFICATION_TYPE": "U", "NORAD_CAT_ID": 66652, "ELEMENT_SET_NO": 999, "REV_AT_EPOCH": 91, "BSTAR": 0.00039654, "MEAN_MOTION_DOT": 3.95e-05, "MEAN_MOTION_DDOT": 0}, "tle": {"line1": "1 66652U 25274C   25336.75637009  .00003950  00000+0  39654-3 0  9997", "line2": "2 66652  97.7380 264.1303 0010526 296.1312  63.8824 14.91818929   911"}}, "geometry": {"type": "Point", "coordinates": [-93.73414866811727, -11.68170577333096]}}, {"type": "Feature", "properties": {"norad_id": 66653, "name": "2025-274D", "group": "last-30-days", "lat": -11.484637262922714, "lon": -93.76300621851055, "alt_km": 592.5009241654861, "timestamp": "2025-12-03T06:58:42.033882+00:00", "meta": {"OBJECT_NAME": "2025-274D", "OBJECT_ID": "2025-274D", "EPOCH": "2025-12-02T02:03:15.458976", "MEAN_MOTION": 14.91817003, "ECCENTRICITY": 0.00114739, "INCLINATION": 97.7373, "RA_OF_ASC_NODE": 263.4712, "ARG_OF_PERICENTER": 293.8442, "MEAN_ANOMALY": 66.1574, "EPHEMERIS_TYPE": 0, "CLASSIFICATION_TYPE": "U", "NORAD_CAT_ID": 66653, "ELEMENT_SET_NO": 999, "REV_AT_EPOCH": 81, "BSTAR": 0.00016079552, "MEAN_MOTION_DOT": 1.568e-05, "MEAN_MOTION_DDOT": 0}, "tle": {"line1": "1 66653U 25274D   25336.08559559  .00001568  00000+0  16080-3 0  9998", "line2": "2 66653  97.7373 263.4712 0011473 293.8442  66.1574 14.91817003   819"}}, "geometry": {"type": "Point", "coordinates": [-93.76300621851055, -11.484637262922714]}}, {"type": "Feature", "properties": {"norad_id": 66654, "name": "JACK E", "group": "last-30-days", "lat": -7.66723212498845, "lon": -94.29453453563188, "alt_km": 591.6548563330362, "timestamp": "2025-12-03T06:58:42.033892+00:00", "meta": {"OBJECT_NAME": "JACK E", "OBJECT_ID": "2025-274E", "EPOCH": "2025-12-02T18:08:10.523904", "MEAN_MOTION": 14.91990394, "ECCENTRICITY": 0.0011883, "INCLINATION": 97.7381, "RA_OF_ASC_NODE": 264.1312, "ARG_OF_PERICENTER": 293.3234, "MEAN_ANOMALY": 66.6734, "EPHEMERIS_TYPE": 0, "CLASSIFICATION_TYPE": "U", "NORAD_CAT_ID": 66654, "ELEMENT_SET_NO": 999, "REV_AT_EPOCH": 91, "BSTAR": 0.00046225, "MEAN_MOTION_DOT": 4.635e-05, "MEAN_MOTION_DDOT": 0}, "tle": {"line1": "1 66654U 25274E   25336.75567736  .00004635  00000+0  46225-3 0  9991", "line2": "2 66654  97.7381 264.1312 0011883 293.3234  66.6734 14.91990394   911"}}, "geometry": {"type": "Point", "coordinates": [-94.29453453563188, -7.66723212498845]}}, {"type": "Feature", "properties": {"norad_id": 66655, "name": "2025-274F", "group": "last-30-days", "lat": -4.486310510086918, "lon": -94.73107263965116, "alt_km": 590.1631105263787, "timestamp": "2025-12-03T06:58:42.033902+00:00", "meta": {"OBJECT_NAME": "2025-274F", "OBJECT_ID": "2025-274F", "EPOCH": "2025-12-02T19:43:59.472768", "MEAN_MOTION": 14.92215441, "ECCENTRICITY": 0.0007841, "INCLINATION": 97.7354, "RA_OF_ASC_NODE": 264.1978, "ARG_OF_PERICENTER": 321.8361, "MEAN_ANOMALY": 38.2302, "EPHEMERIS_TYPE": 0, "CLASSIFICATION_TYPE": "U", "NORAD_CAT_ID": 66655, "ELEMENT_SET_NO": 999, "REV_AT_EPOCH": 92, "BSTAR": 0.00045936, "MEAN_MOTION_DOT": 4.629e-05, "MEAN_MOTION_DDOT": 0}, "tle": {"line1": "1 66655U 25274F   25336.82221612  .00004629  00000+0  45936-3 0  9991", "line2": "2 66655  97.7354 264.1978 0007841 321.8361  38.2302 14.92215441   928"}}, "geometry": {"type": "Point", "coordinates": [-94.73107263965116, -4.486310510086918]}}, {"type": "Feature", "properties": {"norad_id": 66656, "name": "2025-274G", "group": "last-30-days", "lat": -3.444496142392591, "lon": -94.87283855790191, "alt_km": 590.7343795550023, "timestamp": "2025-12-03T06:58:42.033912+00:00", "meta": {"OBJECT_NAME": "2025-274G", "OBJECT_ID": "2025-274G", "EPOCH": "2025-12-02T18:07:07.626432", "MEAN_MOTION": 14.92171724, "ECCENTRICITY": 0.0012529, "INCLINATION": 97.7379, "RA_OF_ASC_NODE": 264.132, "ARG_OF_PERICENTER": 294.8447, "MEAN_ANOMALY": 65.1469, "EPHEMERIS_TYPE": 0, "CLASSIFICATION_TYPE": "U", "NORAD_CAT_ID": 66656, "ELEMENT_SET_NO": 999, "REV_AT_EPOCH": 91, "BSTAR": 0.00050952, "MEAN_MOTION_DOT": 5.14e-05, "MEAN_MOTION_DDOT": 0}, "tle": {"line1": "1 66656U 25274G   25336.75494938  .00005140  00000+0  50952-3 0  9990", "line2": "2 66656  97.7379 264.1320 0012529 294.8447  65.1469 14.92171724   917"}}, "geometry": {"type": "Point", "coordinates": [-94.87283855790191, -3.444496142392591]}}, {"type": "Feature", "properties": {"norad_id": 66657, "name": "SPIRONE", "group": "last-30-days", "lat": 0.7262046203262726, "lon": -95.43886772177011, "alt_km": 588.3806170079106, "timestamp": "2025-12-03T06:58:42.033922+00:00", "meta": {"OBJECT_NAME": "SPIRONE", "OBJECT_ID": "2025-274H", "EPOCH": "2025-12-02T18:06:05.588640", "MEAN_MOTION": 14.92352137, "ECCENTRICITY": 0.0011175, "INCLINATION": 97.7377, "RA_OF_ASC_NODE": 264.1328, "ARG_OF_PERICENTER": 314.0139, "MEAN_ANOMALY": 46.0159, "EPHEMERIS_TYPE": 0, "CLASSIFICATION_TYPE": "U", "NORAD_CAT_ID": 66657, "ELEMENT_SET_NO": 999, "REV_AT_EPOCH": 91, "BSTAR": 0.0005054, "MEAN_MOTION_DOT": 5.119e-05, "MEAN_MOTION_DDOT": 0}, "tle": {"line1": "1 66657U 25274H   25336.75423135  .00005119  00000+0  50540-3 0  9991", "line2": "2 66657  97.7377 264.1328 0011175 314.0139  46.0159 14.92352137   916"}}, "geometry": {"type": "Point", "coordinates": [-95.43886772177011, 0.7262046203262726]}}, {"type": "Feature", "properties": {"norad_id": 66658, "name": "2025-274J", "group": "last-30-days", "lat": 4.878952192538928, "lon": -96.00337788992842, "alt_km": 587.15070452074, "timestamp": "2025-12-03T06:58:42.033934+00:00", "meta": {"OBJECT_NAME": "2025-274J", "OBJECT_ID": "2025-274J", "EPOCH": "2025-12-02T18:05:03.706368", "MEAN_MOTION": 14.92526864, "ECCENTRICITY": 0.0011783, "INCLINATION": 97.7377, "RA_OF_ASC_NODE": 264.1337, "ARG_OF_PERICENTER": 316.7606, "MEAN_ANOMALY": 43.2687, "EPHEMERIS_TYPE": 0, "CLASSIFICATION_TYPE": "U", "NORAD_CAT_ID": 66658, "ELEMENT_SET_NO": 999, "REV_AT_EPOCH": 91, "BSTAR": 0.00048001, "MEAN_MOTION_DOT": 4.881e-05, "MEAN_MOTION_DDOT": 0}, "tle": {"line1": "1 66658U 25274J   25336.75351512  .00004881  00000+0  48001-3 0  9995", "line2": "2 66658  97.7377 264.1337 0011783 316.7606  43.2687 14.92526864   915"}}, "geometry": {"type": "Point", "coordinates": [-96.00337788992842, 4.878952192538928]}}, {"type": "Feature", "properties": {"norad_id": 66659, "name": "JACK K", "group": "last-30-days", "lat": 9.268079808082772, "lon": -96.60777959579326, "alt_km": 586.0371534019223, "timestamp": "2025-12-03T06:58:42.033944+00:00", "meta": {"OBJECT_NAME": "JACK K", "OBJECT_ID": "2025-274K", "EPOCH": "2025-12-02T18:03:58.375008", "MEAN_MOTION": 14.92712931, "ECCENTRICITY": 0.0012519, "INCLINATION": 97.738, "RA_OF_ASC_NODE": 264.1348, "ARG_OF_PERICENTER": 317.6582, "MEAN_ANOMALY": 42.367, "EPHEMERIS_TYPE": 0, "CLASSIFICATION_TYPE": "U", "NORAD_CAT_ID": 66659, "ELEMENT_SET_NO": 999, "REV_AT_EPOCH": 91, "BSTAR": 0.0004758, "MEAN_MOTION_DOT": 4.862e-05, "MEAN_MOTION_DDOT": 0}, "tle": {"line1": "1 66659U 25274K   25336.75275897  .00004862  00000+0  47580-3 0  9997", "line2": "2 66659  97.7380 264.1348 0012519 317.6582  42.3670 14.92712931   917"}}, "geometry": {"type": "Point", "coordinates": [-96.60777959579326, 9.268079808082772]}}, {"type": "Feature", "properties": {"norad_id": 66660, "name": "K-HERO", "group": "last-30-days", "lat": 12.802678380747858, "lon": -97.10524922269488, "alt_km": 585.1688288097466, "timestamp": "2025-12-03T06:58:42.033956+00:00", "meta": {"OBJECT_NAME": "K-HERO", "OBJECT_ID": "2025-274L", "EPOCH": "2025-12-02T18:03:05.835168", "MEAN_MOTION": 14.92864514, "ECCENTRICITY": 0.0013148, "INCLINATION": 97.7383, "RA_OF_ASC_NODE": 264.1359, "ARG_OF_PERICENTER": 318.2435, "MEAN_ANOMALY": 41.778, "EPHEMERIS_TYPE": 0, "CLASSIFICATION_TYPE": "U", "NORAD_CAT_ID": 66660, "ELEMENT_SET_NO": 999, "REV_AT_EPOCH": 91, "BSTAR": 0.000504, "MEAN_MOTION_DOT": 5.174e-05, "MEAN_MOTION_DDOT": 0}, "tle": {"line1": "1 66660U 25274L   25336.75215087  .00005174  00000+0  50400-3 0  9996", "line2": "2 66660  97.7383 264.1359 0013148 318.2435  41.7780 14.92864514   917"}}, "geometry": {"type": "Point", "coordinates": [-97.10524922269488, 12.802678380747858]}}]}